[{"OBJECT_NAME":"STARLINK-34181","OBJECT_ID":"2025-111X","EPOCH":"2026-01-24T21:11:51.429696","MEAN_MOTION":15.27567572,"ECCENTRICITY":0.00016497,"INCLINATION":43.0022,"RA_OF_ASC_NODE":325.2747,"ARG_OF_PERICENTER":243.3214,"MEAN_ANOMALY":116.7469,"EPHEMERIS_TYPE":0,"CLASSIFICATION_TYPE":"U","NORAD_CAT_ID":64144,"ELEMENT_SET_NO":999,"REV_AT_EPOCH":3876,"BSTAR":0.00084759626,"MEAN_MOTION_DOT":0.00023126,"MEAN_MOTION_DDOT":0},{"OBJECT_NAME":"STARLINK-34186","OBJECT_ID":"2025-111Y","EPOCH":"2026-01-24T21:24:49.875552","MEAN_MOTION":15.2759086,"ECCENTRICITY":0.00011994,"INCLINATION":43.0035,"RA_OF_ASC_NODE":325.3419,"ARG_OF_PERICENTER":267.9874,"MEAN_ANOMALY":92.084,"EPHEMERIS_TYPE":0,"CLASSIFICATION_TYPE":"U","NORAD_CAT_ID":64145,"ELEMENT_SET_NO":999,"REV_AT_EPOCH":3876,"BSTAR":0.0016049048,"MEAN_MOTION_DOT":0.00044181,"MEAN_MOTION_DDOT":0},{"OBJECT_NAME":"STARLINK-34314","OBJECT_ID":"2025-112A","EPOCH":"2026-01-24T14:34:06.383712","MEAN_MOTION":15.05666615,"ECCENTRICITY":0.00021003,"INCLINATION":97.6031,"RA_OF_ASC_NODE":78.0352,"ARG_OF_PERICENTER":93.387,"MEAN_ANOMALY":266.7597,"EPHEMERIS_TYPE":0,"CLASSIFICATION_TYPE":"U","NORAD_CAT_ID":64146,"ELEMENT_SET_NO":999,"REV_AT_EPOCH":3667,"BSTAR":0.00071511052,"MEAN_MOTION_DOT":0.00010277,"MEAN_MOTION_DDOT":0},{"OBJECT_NAME":"STARLINK-33926","OBJECT_ID":"2025-112B","EPOCH":"2026-01-24T13:58:13.072800","MEAN_MOTION":15.05671478,"ECCENTRICITY":6.47e-5,"INCLINATION":97.6039,"RA_OF_ASC_NODE":78.0712,"ARG_OF_PERICENTER":50.3829,"MEAN_ANOMALY":309.7455,"EPHEMERIS_TYPE":0,"CLASSIFICATION_TYPE":"U","NORAD_CAT_ID":64147,"ELEMENT_SET_NO":999,"REV_AT_EPOCH":3667,"BSTAR":0.00069865885,"MEAN_MOTION_DOT":0.0001004,"MEAN_MOTION_DDOT":0},{"OBJECT_NAME":"STARLINK-34213","OBJECT_ID":"2025-112C","EPOCH":"2026-01-24T14:46:02.739072","MEAN_MOTION":15.05671329,"ECCENTRICITY":0.00015349,"INCLINATION":97.6043,"RA_OF_ASC_NODE":78.0263,"ARG_OF_PERICENTER":81.4915,"MEAN_ANOMALY":278.6486,"EPHEMERIS_TYPE":0,"CLASSIFICATION_TYPE":"U","NORAD_CAT_ID":64148,"ELEMENT_SET_NO":999,"REV_AT_EPOCH":3667,"BSTAR":0.00059591671,"MEAN_MOTION_DOT":8.553e-5,"MEAN_MOTION_DDOT":0},{"OBJECT_NAME":"STARLINK-33924","OBJECT_ID":"2025-112D","EPOCH":"2026-01-24T21:20:47.915808","MEAN_MOTION":15.05656267,"ECCENTRICITY":3.949e-5,"INCLINATION":97.6052,"RA_OF_ASC_NODE":78.2774,"ARG_OF_PERICENTER":58.8888,"MEAN_ANOMALY":301.2377,"EPHEMERIS_TYPE":0,"CLASSIFICATION_TYPE":"U","NORAD_CAT_ID":64149,"ELEMENT_SET_NO":999,"REV_AT_EPOCH":3671,"BSTAR":0.00017962606,"MEAN_MOTION_DOT":2.532e-5,"MEAN_MOTION_DDOT":0},{"OBJECT_NAME":"STARLINK-34209","OBJECT_ID":"2025-112E","EPOCH":"2026-01-24T13:46:15.653856","MEAN_MOTION":15.0567167,"ECCENTRICITY":8.291e-5,"INCLINATION":97.6025,"RA_OF_ASC_NODE":78.0803,"ARG_OF_PERICENTER":116.0181,"MEAN_ANOMALY":244.1131,"EPHEMERIS_TYPE":0,"CLASSIFICATION_TYPE":"U","NORAD_CAT_ID":64150,"ELEMENT_SET_NO":999,"REV_AT_EPOCH":3667,"BSTAR":0.00081203064,"MEAN_MOTION_DOT":0.00011682,"MEAN_MOTION_DDOT":0},{"OBJECT_NAME":"STARLINK-34338","OBJECT_ID":"2025-112F","EPOCH":"2026-01-24T13:34:18.495840","MEAN_MOTION":15.05665167,"ECCENTRICITY":0.00015668,"INCLINATION":97.6041,"RA_OF_ASC_NODE":78.0918,"ARG_OF_PERICENTER":90.6039,"MEAN_ANOMALY":269.5367,"EPHEMERIS_TYPE":0,"CLASSIFICATION_TYPE":"U","NORAD_CAT_ID":64151,"ELEMENT_SET_NO":999,"REV_AT_EPOCH":3667,"BSTAR":0.00082520835,"MEAN_MOTION_DOT":0.00011871,"MEAN_MOTION_DDOT":0},{"OBJECT_NAME":"STARLINK-34348","OBJECT_ID":"2025-112G","EPOCH":"2026-01-24T14:22:08.251104","MEAN_MOTION":15.05672248,"ECCENTRICITY":0.0002005,"INCLINATION":97.6028,"RA_OF_ASC_NODE":78.0483,"ARG_OF_PERICENTER":85.7168,"MEAN_ANOMALY":274.4288,"EPHEMERIS_TYPE":0,"CLASSIFICATION_TYPE":"U","NORAD_CAT_ID":64152,"ELEMENT_SET_NO":999,"REV_AT_EPOCH":3667,"BSTAR":0.00061406091,"MEAN_MOTION_DOT":8.816e-5,"MEAN_MOTION_DDOT":0},{"OBJECT_NAME":"STARLINK-34345","OBJECT_ID":"2025-112H","EPOCH":"2026-01-23T20:37:27.319008","MEAN_MOTION":15.05687039,"ECCENTRICITY":8.54e-5,"INCLINATION":97.602,"RA_OF_ASC_NODE":77.3402,"ARG_OF_PERICENTER":59.3041,"MEAN_ANOMALY":300.8269,"EPHEMERIS_TYPE":0,"CLASSIFICATION_TYPE":"U","NORAD_CAT_ID":64153,"ELEMENT_SET_NO":999,"REV_AT_EPOCH":3656,"BSTAR":0.0012192,"MEAN_MOTION_DOT":0.00017592,"MEAN_MOTION_DDOT":0},{"OBJECT_NAME":"STARLINK-33945","OBJECT_ID":"2025-112J","EPOCH":"2026-01-25T00:00:04.000320","MEAN_MOTION":15.05625199,"ECCENTRICITY":0.00016553,"INCLINATION":97.6045,"RA_OF_ASC_NODE":86.9663,"ARG_OF_PERICENTER":72.4786,"MEAN_ANOMALY":28.5537,"EPHEMERIS_TYPE":0,"CLASSIFICATION_TYPE":"U","NORAD_CAT_ID":64154,"ELEMENT_SET_NO":999,"REV_AT_EPOCH":585,"BSTAR":0.0032272035,"MEAN_MOTION_DOT":0.00046781,"MEAN_MOTION_DDOT":0},{"OBJECT_NAME":"STARLINK-34346","OBJECT_ID":"2025-112K","EPOCH":"2026-01-24T02:40:21.385632","MEAN_MOTION":15.05665964,"ECCENTRICITY":8.973e-5,"INCLINATION":97.603,"RA_OF_ASC_NODE":77.6275,"ARG_OF_PERICENTER":63.4981,"MEAN_ANOMALY":296.6338,"EPHEMERIS_TYPE":0,"CLASSIFICATION_TYPE":"U","NORAD_CAT_ID":64155,"ELEMENT_SET_NO":999,"REV_AT_EPOCH":3660,"BSTAR":0.0012375872,"MEAN_MOTION_DOT":0.00017849,"MEAN_MOTION_DDOT":0},{"OBJECT_NAME":"STARLINK-34277","OBJECT_ID":"2025-112L","EPOCH":"2026-01-24T14:38:04.224768","MEAN_MOTION":15.05698473,"ECCENTRICITY":0.00013864,"INCLINATION":97.6001,"RA_OF_ASC_NODE":78.0403,"ARG_OF_PERICENTER":93.5897,"MEAN_ANOMALY":266.5488,"EPHEMERIS_TYPE":0,"CLASSIFICATION_TYPE":"U","NORAD_CAT_ID":64156,"ELEMENT_SET_NO":999,"REV_AT_EPOCH":3667,"BSTAR":0.0015457074,"MEAN_MOTION_DOT":0.00022342,"MEAN_MOTION_DDOT":0},{"OBJECT_NAME":"STARLINK-34343","OBJECT_ID":"2025-112M","EPOCH":"2026-01-24T14:14:10.632768","MEAN_MOTION":15.05642468,"ECCENTRICITY":0.00020496,"INCLINATION":97.6024,"RA_OF_ASC_NODE":78.0651,"ARG_OF_PERICENTER":75.7954,"MEAN_ANOMALY":284.3501,"EPHEMERIS_TYPE":0,"CLASSIFICATION_TYPE":"U","NORAD_CAT_ID":64157,"ELEMENT_SET_NO":999,"REV_AT_EPOCH":3667,"BSTAR":0.00062114351,"MEAN_MOTION_DOT":8.911e-5,"MEAN_MOTION_DDOT":0},{"OBJECT_NAME":"STARLINK-34166","OBJECT_ID":"2025-112N","EPOCH":"2026-01-24T13:26:16.999008","MEAN_MOTION":15.05708931,"ECCENTRICITY":6.732e-5,"INCLINATION":97.6024,"RA_OF_ASC_NODE":77.9482,"ARG_OF_PERICENTER":190.7158,"MEAN_ANOMALY":169.4055,"EPHEMERIS_TYPE":0,"CLASSIFICATION_TYPE":"U","NORAD_CAT_ID":64158,"ELEMENT_SET_NO":999,"REV_AT_EPOCH":3666,"BSTAR":0.0011884173,"MEAN_MOTION_DOT":0.00017155,"MEAN_MOTION_DDOT":0},{"OBJECT_NAME":"STARLINK-34344","OBJECT_ID":"2025-112P","EPOCH":"2026-01-24T14:50:01.841568","MEAN_MOTION":15.05658337,"ECCENTRICITY":3.046e-5,"INCLINATION":97.6039,"RA_OF_ASC_NODE":78.0286,"ARG_OF_PERICENTER":86.4734,"MEAN_ANOMALY":273.6527,"EPHEMERIS_TYPE":0,"CLASSIFICATION_TYPE":"U","NORAD_CAT_ID":64159,"ELEMENT_SET_NO":999,"REV_AT_EPOCH":3667,"BSTAR":0.00055367882,"MEAN_MOTION_DOT":7.939e-5,"MEAN_MOTION_DDOT":0}]
