STARLINK-34181          
1 64144U 25111X   26024.88323414  .00023126  00000+0  84760-3 0  9997
2 64144  43.0022 325.2747 0001649 243.3214 116.7469 15.27567572 38766
STARLINK-34186          
1 64145U 25111Y   26024.89224393  .00044181  00000+0  16049-2 0  9993
2 64145  43.0035 325.3419 0001199 267.9874  92.0840 15.27590860 38767
STARLINK-34314          
1 64146U 25112A   26024.60701833  .00010277  00000+0  71511-3 0  9998
2 64146  97.6031  78.0352 0002100  93.3870 266.7597 15.05666615 36672
STARLINK-33926          
1 64147U 25112B   26024.58209575  .00010040  00000+0  69866-3 0  9990
2 64147  97.6039  78.0712 0000647  50.3829 309.7455 15.05671478 36676
STARLINK-34213          
1 64148U 25112C   26024.61530948  .00008553  00000+0  59592-3 0  9997
2 64148  97.6043  78.0263 0001534  81.4915 278.6486 15.05671329 36673
STARLINK-33924          
1 64149U 25112D   26024.88944347  .00002532  00000+0  17963-3 0  9996
2 64149  97.6052  78.2774 0000394  58.8888 301.2377 15.05656267 36714
STARLINK-34209          
1 64150U 25112E   26024.57379229  .00011682  00000+0  81203-3 0  9999
2 64150  97.6025  78.0803 0000829 116.0181 244.1131 15.05671670 36676
STARLINK-34338          
1 64151U 25112F   26024.56549185  .00011871  00000+0  82521-3 0  9993
2 64151  97.6041  78.0918 0001566  90.6039 269.5367 15.05665167 36676
STARLINK-34348          
1 64152U 25112G   26024.59870661  .00008816  00000+0  61406-3 0  9997
2 64152  97.6028  78.0483 0002005  85.7168 274.4288 15.05672248 36671
STARLINK-34345          
1 64153U 25112H   26023.85934397  .00017592  00000+0  12192-2 0  9991
2 64153  97.6020  77.3402 0000854  59.3041 300.8269 15.05687039 36569
STARLINK-33945          
1 64154U 25112J   26025.00004630  .00046781  00000+0  32272-2 0  9992
2 64154  97.6045  86.9663 0001655  72.4786  28.5537 15.05625199  5853
STARLINK-34346          
1 64155U 25112K   26024.11135863  .00017849  00000+0  12376-2 0  9993
2 64155  97.6030  77.6275 0000897  63.4981 296.6338 15.05665964 36606
STARLINK-34277          
1 64156U 25112L   26024.60977112  .00022342  00000+0  15457-2 0  9996
2 64156  97.6001  78.0403 0001386  93.5897 266.5488 15.05698473 36677
STARLINK-34343          
1 64157U 25112M   26024.59317862  .00008911  00000+0  62114-3 0  9994
2 64157  97.6024  78.0651 0002049  75.7954 284.3501 15.05642468 36678
STARLINK-34166          
1 64158U 25112N   26024.55991897  .00017155  00000+0  11884-2 0  9994
2 64158  97.6024  77.9482 0000673 190.7158 169.4055 15.05708931 36668
STARLINK-34344          
1 64159U 25112P   26024.61807687  .00007939  00000+0  55368-3 0  9990
2 64159  97.6039  78.0286 0000304  86.4734 273.6527 15.05658337 36678
